COMMENT,ORIGINATOR,NORAD_CAT_ID,OBJECT_NAME,OBJECT_TYPE,CLASSIFICATION_TYPE,INTLDES,EPOCH,EPOCH_MICROSECONDS,MEAN_MOTION,ECCENTRICITY,INCLINATION,RA_OF_ASC_NODE,ARG_OF_PERICENTER,MEAN_ANOMALY,EPHEMERIS_TYPE,ELEMENT_SET_NO,REV_AT_EPOCH,BSTAR,MEAN_MOTION_DOT,MEAN_MOTION_DDOT,FILE,TLE_LINE0,TLE_LINE1,TLE_LINE2,OBJECT_ID,OBJECT_NUMBER,SEMIMAJOR_AXIS,PERIOD,APOGEE,PERIGEE,DECAYED,date
GENERATED VIA SPACETRACK.ORG API,18 SPCS,46301,SPACEBEE-20,PAYLOAD,U,20061AF,2023/3/15 3:31,796992,15.42177901,0.0003075,97.4176,150.0405,248.8139,111.2779,0,999,13981,0.0037543,0.00164145,0,3861350,0 SPACEBEE-20,1 46301U 20061AF  23074.14712728  .00164145  00000-0  37543-2 0  9996,2 46301  97.4176 150.0405 0003075 248.8139 111.2779 15.42177901139812,2020-061AF,46301,6817.82,93.374,441.781,437.588,1,
GENERATED VIA SPACETRACK.ORG API,18 SPCS,46301,SPACEBEE-20,PAYLOAD,U,20061AF,2023/3/16 4:26,815520,15.42525539,0.0003156,97.4178,151.0972,248.9614,111.1296,0,999,13997,0.003985,0.00176549,0,3861814,0 SPACEBEE-20,1 46301U 20061AF  23075.18518305  .00176549  00000-0  39850-2 0  9990,2 46301  97.4178 151.0972 0003156 248.9614 111.1296 15.42525539139977,2020-061AF,46301,6816.796,93.353,440.812,436.509,1,
GENERATED VIA SPACETRACK.ORG API,18 SPCS,46301,SPACEBEE-20,PAYLOAD,U,20061AF,2023/3/16 10:40,811488,15.42598029,0.0003137,97.4178,151.3616,249.6894,110.4016,0,999,14001,0.0038343,0.00170139,0,3862177,0 SPACEBEE-20,1 46301U 20061AF  23075.44466217  .00170139  00000-0  38343-2 0  9998,2 46301  97.4178 151.3616 0003137 249.6894 110.4016 15.42598029140015,2020-061AF,46301,6816.582,93.349,440.585,436.309,1,
GENERATED VIA SPACETRACK.ORG API,18 SPCS,46301,SPACEBEE-20,PAYLOAD,U,20061AF,2023/3/16 10:40,811488,15.42598029,0.0003137,97.4178,151.3616,249.6894,110.4016,0,999,14001,0.0038343,0.00170139,0,3862295,0 SPACEBEE-20,1 46301U 20061AF  23075.44466217  .00170139  00000-0  38343-2 0  9998,2 46301  97.4178 151.3616 0003137 249.6894 110.4016 15.42598029140015,2020-061AF,46301,6816.582,93.349,440.585,436.309,1,
GENERATED VIA SPACETRACK.ORG API,18 SPCS,46301,SPACEBEE-20,PAYLOAD,U,20061AF,2023/3/16 15:20,417376,15.42638648,0.0003124,97.4177,151.5596,250.263,109.8281,0,999,14004,0.0029296,0.00129466,0,3862463,0 SPACEBEE-20,1 46301U 20061AF  23075.63926409  .00129466  00000-0  29296-2 0  9997,2 46301  97.4177 151.5596 0003124 250.2630 109.8281 15.42638648140046,2020-061AF,46301,6816.462,93.347,440.457,436.198,1,
GENERATED VIA SPACETRACK.ORG API,18 SPCS,46301,SPACEBEE-20,PAYLOAD,U,20061AF,2023/3/16 15:20,417376,15.42638648,0.0003124,97.4177,151.5596,250.263,109.8281,0,999,14004,0.0029296,0.00129466,0,3862592,0 SPACEBEE-20,1 46301U 20061AF  23075.63926409  .00129466  00000-0  29296-2 0  9997,2 46301  97.4177 151.5596 0003124 250.2630 109.8281 15.42638648140046,2020-061AF,46301,6816.462,93.347,440.457,436.198,1,
GENERATED VIA SPACETRACK.ORG API,18 SPCS,46301,SPACEBEE-20,PAYLOAD,U,20061AF,2023/3/17 3:47,938112,15.42767397,0.0003233,97.4175,152.0874,247.6549,112.4356,0,999,14012,0.0024793,0.00109745,0,3863157,0 SPACEBEE-20,1 46301U 20061AF  23076.15817058  .00109745  00000-0  24793-2 0  9999,2 46301  97.4175 152.0874 0003233 247.6549 112.4356 15.42767397140125,2020-061AF,46301,6816.083,93.339,440.152,435.744,1,
GENERATED VIA SPACETRACK.ORG API,18 SPCS,46301,SPACEBEE-20,PAYLOAD,U,20061AF,2023/3/17 3:47,938112,15.42767397,0.0003233,97.4175,152.0874,247.6549,112.4356,0,999,14012,0.0024793,0.00109745,0,3863278,0 SPACEBEE-20,1 46301U 20061AF  23076.15817058  .00109745  00000-0  24793-2 0  9999,2 46301  97.4175 152.0874 0003233 247.6549 112.4356 15.42767397140125,2020-061AF,46301,6816.083,93.339,440.152,435.744,1,
GENERATED VIA SPACETRACK.ORG API,18 SPCS,46301,SPACEBEE-20,PAYLOAD,U,20061AF,2023/3/18 4:42,405952,15.43023014,0.000328,97.4177,153.1441,245.6356,114.4549,0,999,14028,0.002776,0.00124175,0,3863707,0 SPACEBEE-20,1 46301U 20061AF  23077.19586118  .00124175  00000-0  27760-2 0  9995,2 46301  97.4177 153.1441 0003280 245.6356 114.4549 15.43023014140280,2020-061AF,46301,6815.33,93.323,439.431,434.96,1,
GENERATED VIA SPACETRACK.ORG API,18 SPCS,46301,SPACEBEE-20,PAYLOAD,U,20061AF,2023/3/18 18:42,791712,15.43154271,0.0003367,97.4174,153.7388,245.8906,114.199,0,999,14037,0.0026415,0.0011859,0,3864360,0 SPACEBEE-20,1 46301U 20061AF  23077.77948833  .00118590  00000-0  26415-2 0  9995,2 46301  97.4174 153.7388 0003367 245.8906 114.1990 15.43154271140379,2020-061AF,46301,6814.944,93.315,439.103,434.514,1,
GENERATED VIA SPACETRACK.ORG API,18 SPCS,46301,SPACEBEE-20,PAYLOAD,U,20061AF,2023/3/18 18:42,791712,15.43154271,0.0003367,97.4174,153.7388,245.8906,114.199,0,999,14037,0.0026415,0.0011859,0,3864479,0 SPACEBEE-20,1 46301U 20061AF  23077.77948833  .00118590  00000-0  26415-2 0  9995,2 46301  97.4174 153.7388 0003367 245.8906 114.1990 15.43154271140379,2020-061AF,46301,6814.944,93.315,439.103,434.514,1,
GENERATED VIA SPACETRACK.ORG API,18 SPCS,46301,SPACEBEE-20,PAYLOAD,U,20061AF,2023/3/19 4:02,17568,15.43255601,0.0003397,97.4174,154.1347,243.9448,116.145,0,999,14043,0.0025452,0.00114593,0,3865049,0 SPACEBEE-20,1 46301U 20061AF  23078.16854187  .00114593  00000-0  25452-2 0  9996,2 46301  97.4174 154.1347 0003397 243.9448 116.1450 15.43255601140431,2020-061AF,46301,6814.645,93.309,438.825,434.196,1,
GENERATED VIA SPACETRACK.ORG API,18 SPCS,46301,SPACEBEE-20,PAYLOAD,U,20061AF,2023/3/19 18:02,600544,15.43397694,0.0003417,97.4173,154.7296,243.746,116.3437,0,999,14052,0.0027647,0.0012525,0,3865233,0 SPACEBEE-20,1 46301U 20061AF  23078.75207871  .00125250  00000-0  27647-2 0  9993,2 46301  97.4173 154.7296 0003417 243.7460 116.3437 15.43397694140520,2020-061AF,46301,6814.227,93.301,438.421,433.764,1,
GENERATED VIA SPACETRACK.ORG API,18 SPCS,46301,SPACEBEE-20,PAYLOAD,U,20061AF,2023/3/19 18:02,600544,15.43397694,0.0003417,97.4173,154.7296,243.746,116.3437,0,999,14052,0.0027647,0.0012525,0,3865354,0 SPACEBEE-20,1 46301U 20061AF  23078.75207871  .00125250  00000-0  27647-2 0  9993,2 46301  97.4173 154.7296 0003417 243.7460 116.3437 15.43397694140520,2020-061AF,46301,6814.227,93.301,438.421,433.764,1,
GENERATED VIA SPACETRACK.ORG API,18 SPCS,46301,SPACEBEE-20,PAYLOAD,U,20061AF,2023/3/20 4:56,636448,15.43527698,0.0003434,97.4173,155.1915,242.0704,118.0197,0,999,14059,0.0027357,0.00124465,0,3865518,0 SPACEBEE-20,1 46301U 20061AF  23079.20589857  .00124465  00000-0  27357-2 0  9996,2 46301  97.4173 155.1915 0003434 242.0704 118.0197 15.43527698140593,2020-061AF,46301,6813.845,93.293,438.049,433.37,1,
GENERATED VIA SPACETRACK.ORG API,18 SPCS,46301,SPACEBEE-20,PAYLOAD,U,20061AF,2023/3/20 4:56,636448,15.43527698,0.0003434,97.4173,155.1915,242.0704,118.0197,0,999,14059,0.0027357,0.00124465,0,3865912,0 SPACEBEE-20,1 46301U 20061AF  23079.20589857  .00124465  00000-0  27357-2 0  9996,2 46301  97.4173 155.1915 0003434 242.0704 118.0197 15.43527698140593,2020-061AF,46301,6813.845,93.293,438.049,433.37,1,
GENERATED VIA SPACETRACK.ORG API,18 SPCS,46301,SPACEBEE-20,PAYLOAD,U,20061AF,2023/3/20 17:23,745216,15.4365275,0.0003511,97.4175,155.7201,244.4484,115.6401,0,999,14067,0.0028529,0.00130449,0,3866115,0 SPACEBEE-20,1 46301U 20061AF  23079.72451094  .00130449  00000-0  28529-2 0  9995,2 46301  97.4175 155.7201 0003511 244.4484 115.6401 15.43652750140674,2020-061AF,46301,6813.477,93.285,437.734,432.949,1,
GENERATED VIA SPACETRACK.ORG API,18 SPCS,46301,SPACEBEE-20,PAYLOAD,U,20061AF,2023/3/21 10:30,360448,15.43842492,0.0003543,97.4172,156.4473,244.184,115.9042,0,999,14078,0.0028753,0.00132348,0,3866654,0 SPACEBEE-20,1 46301U 20061AF  23080.43752732  .00132348  00000-0  28753-2 0  9997,2 46301  97.4172 156.4473 0003543 244.1840 115.9042 15.43842492140788,2020-061AF,46301,6812.918,93.274,437.197,432.369,1,
GENERATED VIA SPACETRACK.ORG API,18 SPCS,46301,SPACEBEE-20,PAYLOAD,U,20061AF,2023/3/21 10:30,360448,15.43842492,0.0003543,97.4172,156.4473,244.184,115.9042,0,999,14078,0.0028753,0.00132348,0,3866730,0 SPACEBEE-20,1 46301U 20061AF  23080.43752732  .00132348  00000-0  28753-2 0  9997,2 46301  97.4172 156.4473 0003543 244.1840 115.9042 15.43842492140788,2020-061AF,46301,6812.918,93.274,437.197,432.369,1,
GENERATED VIA SPACETRACK.ORG API,18 SPCS,46301,SPACEBEE-20,PAYLOAD,U,20061AF,2023/3/22 3:36,239424,15.44040566,0.0003594,97.4168,157.1737,241.8293,118.2592,0,999,14089,0.0028972,0.00134283,0,3867483,0 SPACEBEE-20,1 46301U 20061AF  23081.15045416  .00134283  00000-0  28972-2 0  9994,2 46301  97.4168 157.1737 0003594 241.8293 118.2592 15.44040566140897,2020-061AF,46301,6812.336,93.262,436.649,431.752,1,
GENERATED VIA SPACETRACK.ORG API,18 SPCS,46301,SPACEBEE-20,PAYLOAD,U,20061AF,2023/3/22 17:36,771072,15.44208562,0.000355,97.4161,157.7687,241.1265,118.9627,0,999,14098,0.0031435,0.00146769,0,3867810,0 SPACEBEE-20,1 46301U 20061AF  23081.73368948  .00146769  00000-0  31435-2 0  9996,2 46301  97.4161 157.7687 0003550 241.1265 118.9627 15.44208562140982,2020-061AF,46301,6811.842,93.252,436.125,431.288,1,
GENERATED VIA SPACETRACK.ORG API,18 SPCS,46301,SPACEBEE-20,PAYLOAD,U,20061AF,2023/3/22 17:36,771072,15.44208562,0.000355,97.4161,157.7687,241.1265,118.9627,0,999,14098,0.0031435,0.00146769,0,3868201,0 SPACEBEE-20,1 46301U 20061AF  23081.73368948  .00146769  00000-0  31435-2 0  9996,2 46301  97.4161 157.7687 0003550 241.1265 118.9627 15.44208562140982,2020-061AF,46301,6811.842,93.252,436.125,431.288,1,
GENERATED VIA SPACETRACK.ORG API,18 SPCS,46301,SPACEBEE-20,PAYLOAD,U,20061AF,2023/3/23 4:29,162560,15.44339398,0.0003626,97.4158,158.2311,239.0344,121.0548,0,999,14105,0.0025144,0.00117455,0,3868376,0 SPACEBEE-20,1 46301U 20061AF  23082.18727040  .00117455  00000-0  25144-2 0  9998,2 46301  97.4158 158.2311 0003626 239.0344 121.0548 15.44339398141054,2020-061AF,46301,6811.457,93.244,435.792,430.852,1,
